[4196242010so16]
absolute_magnitude             = 20.5
albedo                         = 0.15
discoverer                     = WISE
discovery                      = 2010-09-17
iau_designation                = 2010 SO16
minor_planet_number            = 419624
orbit_ArgOfPericenter          = 109.20696
orbit_AscendingNode            = 40.35321
orbit_Eccentricity             = 0.0754044
orbit_Epoch                    = 2460000.5
orbit_Inclination              = 14.51548
orbit_MeanAnomaly              = 334.52062
orbit_MeanMotion               = 0.98014045
orbit_SemiMajorAxis            = 1.0037152
radius                         = 1
type                           = asteroid

[433eros]
absolute_magnitude             = 10.4
albedo                         = 0.25
color                          = 1., 0.849, 0.718
color_index_bv                 = 0.921
discoverer                     = G. Witt
discovery                      = 1898-08-13
iau_designation                = 1898 DQ
minor_planet_number            = 433
name                           = Eros
orbit_ArgOfPericenter          = 178.92702
orbit_AscendingNode            = 304.28702
orbit_Eccentricity             = 0.2227819
orbit_Epoch                    = 2460000.5
orbit_Inclination              = 10.82783
orbit_MeanAnomaly              = 110.77765
orbit_MeanMotion               = 0.55977061
orbit_SemiMajorAxis            = 1.4581291
radius                         = 8.42
rot_pole_de                    = 17.22
rot_pole_ra                    = 11.35
rot_pole_w0                    = 326.07
rot_pole_w1                    = 1639.38864745
slope_parameter                = 0.46
spec_b                         = S
spec_t                         = S
tex_map                        = eros.png
type                           = asteroid

[4692192016hq3]
absolute_magnitude             = 24.2
albedo                         = 0.15
discoverer                     = Pan-STARRS 1
discovery                      = 2016-04-27
iau_designation                = 2016 HO3
minor_planet_number            = 469219
name                           = Kamo`oalewa
orbit_ArgOfPericenter          = 307.22764
orbit_AscendingNode            = 66.51321
orbit_Eccentricity             = 0.1041435
orbit_Epoch                    = 2457600.5
orbit_Inclination              = 7.77144
orbit_MeanAnomaly              = 297.53218
orbit_MeanMotion               = 0.98379205
orbit_SemiMajorAxis            = 1.00123
radius                         = 1
type                           = asteroid

[4vesta]
absolute_magnitude             = 3.0
albedo                         = 0.4228
color_index_bv                 = 0.782
discoverer                     = H.W. Olbers
discovery                      = 1807-03-29
minor_planet_number            = 4
model                          = 4vesta_21_MLfix.obj
name                           = Vesta
orbit_ArgOfPericenter          = 151.59911
orbit_AscendingNode            = 103.75733
orbit_Eccentricity             = 0.0887575
orbit_Epoch                    = 2460000.5
orbit_Inclination              = 7.13926
orbit_MeanAnomaly              = 115.13302
orbit_MeanMotion               = 0.27133009
orbit_SemiMajorAxis            = 2.3630382
radius                         = 262.7
rot_pole_de                    = 42.235
rot_pole_ra                    = 309.031
rot_pole_w0                    = 285.39
rot_pole_w1                    = 1617.3329428
rot_rotation_offset            = 210
slope_parameter                = 0.32
spec_b                         = V
spec_t                         = V
tex_map                        = vesta.png
type                           = asteroid

[50000quaoar]
absolute_magnitude             = 2.4
albedo                         = 0.16
discoverer                     = C.A. Trujillo, M.E. Brown
discovery                      = 2002-06-04
iau_designation                = 2002 LM60
minor_planet_number            = 50000
name                           = Quaoar
orbit_ArgOfPericenter          = 157.69917
orbit_AscendingNode            = 189.10111
orbit_Eccentricity             = 0.0402881
orbit_Epoch                    = 2460000.5
orbit_Inclination              = 7.99129
orbit_MeanAnomaly              = 294.4204
orbit_MeanMotion               = 0.00344866
orbit_SemiMajorAxis            = 43.3879596
radius                         = 1037
type                           = cubewano

[5261eureka]
absolute_magnitude             = 16.1
albedo                         = 0.182
discoverer                     = D.H. Levy, H.E. Holt
discovery                      = 1990-06-20
iau_designation                = 1990 MB
minor_planet_number            = 5261
name                           = Eureka
orbit_ArgOfPericenter          = 95.53085
orbit_AscendingNode            = 245.01987
orbit_Eccentricity             = 0.0648448
orbit_Epoch                    = 2460000.5
orbit_Inclination              = 20.282
orbit_MeanAnomaly              = 67.92488
orbit_MeanMotion               = 0.5240994
orbit_SemiMajorAxis            = 1.5235625
radius                         = 0.939
spec_b                         = Sr
type                           = asteroid

[556372002ux25]
absolute_magnitude             = 3.8
albedo                         = 0.15
discoverer                     = Spacewatch at Kitt Peak
discovery                      = 2002-10-30
iau_designation                = 2002 UX25
minor_planet_number            = 55637
orbit_ArgOfPericenter          = 274.96751
orbit_AscendingNode            = 204.5433
orbit_Eccentricity             = 0.1429331
orbit_Epoch                    = 2460000.5
orbit_Inclination              = 19.38226
orbit_MeanAnomaly              = 306.66964
orbit_MeanMotion               = 0.00350266
orbit_SemiMajorAxis            = 42.9408913
radius                         = 597
type                           = cubewano

[90377sedna]
absolute_magnitude             = 1.5
albedo                         = 0.32
discoverer                     = M.E. Brown, C.A. Trujillo, D.L. Rabinowitz
discovery                      = 2003-11-14
iau_designation                = 2003 VB12
minor_planet_number            = 90377
name                           = Sedna
orbit_ArgOfPericenter          = 310.8704
orbit_AscendingNode            = 144.25836
orbit_Eccentricity             = 0.8565261
orbit_Epoch                    = 2460000.5
orbit_Inclination              = 11.93034
orbit_MeanAnomaly              = 358.46965
orbit_MeanMotion               = 8.024e-05
orbit_SemiMajorAxis            = 532.372351
radius                         = 1643
slope_parameter                = 0.15
tex_map                        = sedna.png
type                           = sednoid

